ESTCUBE 1               
1 39161U 13021C   21343.86606362  .00000324  00000+0  58531-4 0  9991
2 39161  97.9288  60.9245 0008569 316.4399  43.6121 14.72599145461560
FENGYUN 3C              
1 39260U 13052A   21343.74379464  .00000043  00000+0  42962-4 0  9991
2 39260  98.4785  16.2452 0012276  99.9345 260.3205 14.15888760425074
CASSIOPE                
1 39265U 13055A   21343.89447128  .00006788  00000+0  18515-3 0  9996
2 39265  80.9658 107.6344 0640757 158.1010 204.8946 14.34331292425122
ZACUBE-1 (TSHEPISOSAT)  
1 39417U 13066B   21343.77369713  .00000482  00000+0  66093-4 0  9997
2 39417  97.6136 319.2204 0057279 307.4495  52.1515 14.81710430435034
CINEMA-3 (KHUSAT-2)     
1 39426U 13066L   21343.84222536  .00000197  00000+0  38214-4 0  9993
2 39426  97.7785 287.3069 0105096 122.7971 238.3412 14.69791815431411
TRITON-1                
1 39427U 13066M   21343.79341657  .00000245  00000+0  46445-4 0  9993
2 39427  97.7957 283.1289 0113596 150.0937 210.6824 14.68411831430944
DELFI-N3XT              
1 39428U 13066N   21343.71428884  .00000477  00000+0  82348-4 0  9993
2 39428  97.7988 281.5587 0119378 163.4983 197.0162 14.68284043430682
GOMX-1                  
1 39430U 13066Q   21343.94961271  .00000497  00000+0  98585-4 0  9995
2 39430  97.8147 256.9360 0148992 282.3559  76.0996 14.59769322428644
BRITE-PL1 (LEM)         
1 39431U 13066R   21343.86763817  .00000098  00000+0  30260-4 0  9996
2 39431  97.7231 209.1442 0203309  95.8391 266.6019 14.47195986424942
ICUBE-1                 
1 39432U 13066S   21343.85341141  .00000563  00000+0  61575-4 0  9998
2 39432  97.4696 352.6114 0031718 174.9180 185.2368 14.91133610436449
HUMSAT-D                
1 39433U 13066T   21343.77058649  .00000453  00000+0  48056-4 0  9995
2 39433  97.4592 359.8341 0030876 152.4020 207.8848 14.93229505436900
VELOX-PII               
1 39438U 13066Y   21343.88003523  .00000391  00000+0  58566-4 0  9991
2 39438  97.6668 310.1815 0070082 355.1926   4.8604 14.78375146432993
FIRST-MOVE              
1 39439U 13066Z   21343.73699938  .00000966  00000+0  12143-3 0  9995
2 39439  97.6172 321.0481 0063130 304.3253  55.1996 14.82977108433927
CUBEBUG-2 (LO-74)       
1 39440U 13066AA  21343.65670388  .00000503  00000+0  75842-4 0  9999
2 39440  97.7012 304.5878 0080394  28.0815 332.4697 14.76416324432271
NEE-02 KRYSAOR          
1 39441U 13066AB  21343.84685601  .00000307  00000+0  50181-4 0  9996
2 39441  97.7116 302.0409 0082268  39.5268 321.1902 14.75307867432073
FUNCUBE-1 (AO-73)       
1 39444U 13066AE  21343.91853105  .00000531  00000+0  70588-4 0  9995
2 39444  97.6030 321.7473 0056113 296.1338  63.4110 14.82657766433430
HINCUBE                 
1 39445U 13066AF  21343.87916621  .00000487  00000+0  65515-4 0  9998
2 39445  97.6045 321.5471 0056188 298.3069  61.2483 14.82482571433372
UWE-3                   
1 39446U 13066AG  21343.86975856  .00000458  00000+0  66541-4 0  9991
2 39446  97.6606 311.5278 0069241 348.6646  11.3003 14.78964127432431
AIST-1 (RS-41)          
1 39492U 13078C   21343.85444665  .00000364  00000+0  36769-4 0  9998
2 39492  82.4208  57.9890 0020509  18.8372 341.3597 14.88133807431582
SPROUT                  
1 39770U 14029E   21343.57267620  .00001791  00000+0  19642-3 0  9992
2 39770  97.9299  94.8880 0008718   0.0901   0.0217 14.88981949409390
UNISAT-6                
1 40012U 14033C   21343.79976298  .00000285  00000+0  48965-4 0  9998
2 40012  97.6625 176.9194 0059071  53.8543 306.8112 14.74459415402035
BUGSAT-1 (TITA)         
1 40014U 14033E   21343.94974880  .00000058  00000+0  10910-4 0  9999
2 40014  98.1301 329.8910 0030504 306.3357  53.5047 14.95972207407803
DUCHIFAT-1              
1 40021U 14033M   21343.83663902  .00000642  00000+0  69665-4 0  9995
2 40021  97.9914 286.0678 0011695 311.5420  48.4794 14.91686280406420
NANOSATC-BR1            
1 40024U 14033Q   21343.77670059  .00000791  00000+0  86426-4 0  9991
2 40024  97.9671 280.3014 0011207 318.3282  41.7080 14.90730274405711
QB50P1                  
1 40025U 14033R   21343.54641448  .00000556  00000+0  64036-4 0  9999
2 40025  97.9456 274.7917 0011621 328.8215  31.2312 14.89683347405486
DTUSAT-2                
1 40030U 14033W   21343.53589123  .00000506  00000+0  59497-4 0  9995
2 40030  97.9257 270.8104 0011028 325.5514  34.4987 14.89212095405372
QB50P2                  
1 40032U 14033Y   21343.77257713  .00000485  00000+0  57336-4 0  9996
2 40032  97.9263 271.0570 0010967 325.5690  34.4815 14.89174937405380
POLYITAN-1              
1 40042U 14033AJ  21343.75283755  .00000721  00000+0  81602-4 0  9996
2 40042  97.9555 275.9698 0013665 318.3536  41.6640 14.89540478405402
TIGRISAT                
1 40043U 14033AK  21343.79901599  .00000204  00000+0  36962-4 0  9999
2 40043  97.6582 178.2837 0060753  51.5637 309.1004 14.74650715401679
AISAT                   
1 40054U 14034B   21343.41415204  .00000717  00000+0  10526-3 0  9990
2 40054  98.3403 142.6117 0012395 199.1811 160.8934 14.78716789401389
CANX-4                  
1 40055U 14034C   21343.83569276  .00000158  00000+0  31581-4 0  9990
2 40055  98.3298 129.9486 0013164 238.9443 121.0473 14.75142542400762
CANX-5                  
1 40056U 14034D   21343.84139278  .00000163  00000+0  32337-4 0  9993
2 40056  98.3298 129.9378 0013177 239.1492 120.8420 14.75135382391575
VELOX-I                 
1 40057U 14034E   21343.91075975  .00000723  00000+0  10686-3 0  9999
2 40057  98.3454 144.2305 0010235 211.3877 148.6719 14.78404634401462
METEOR-M 2              
1 40069U 14037A   21343.94285852  .00000004  00000+0  20951-4 0  9994
2 40069  98.4467   5.2624 0006254 142.6593 217.5017 14.20693183384954
DX1                     
1 40071U 14037C   21343.91453287  .00000263  00000+0  40942-4 0  9992
2 40071  98.4311 197.9479 0007929 197.4598 162.6346 14.81592972401276
UKUBE-1                 
1 40074U 14037F   21343.88074708  .00000669  00000+0  85979-4 0  9997
2 40074  98.4056 209.4183 0004002 165.7456 194.3862 14.84760015401932
FIREBIRD 3              
1 40377U 15003B   21343.81115774  .00003382  00000+0  12008-3 0  9996
2 40377  99.1134 162.2592 0112138 304.8977  54.1755 15.24273502379480
FIREBIRD 4              
1 40378U 15003C   21343.71532263  .00003843  00000+0  13557-3 0  9994
2 40378  99.1139 162.3148 0112140 304.9761  54.0982 15.24338482379478
GRIFEX                  
1 40379U 15003D   21343.72944452  .00002087  00000+0  84778-4 0  9996
2 40379  99.1143 150.0853 0124440 341.7436  17.9346 15.19408486378786
CP10 (EXOCUBE)          
1 40380U 15003E   21343.93955900  .00001497  00000+0  65664-4 0  9998
2 40380  99.1174 144.0216 0130860   2.1910 357.9864 15.16905040378402
DEORBITSAIL             
1 40719U 15032E   21343.94617499  .00000561  00000+0  85276-4 0  9997
2 40719  97.8047 223.4174 0014817 259.3005 100.6537 14.77628325345892
NUDT-PHONESAT           
1 40900U 15049B   21343.84250264  .00005776  00000+0  21113-3 0  9991
2 40900  97.4138 356.9587 0009637 234.3741 251.1273 15.28436996345599
XW-2A                   
1 40903U 15049E   21343.83003435  .00004971  00000+0  99250-4 0  9993
2 40903  97.2125  37.7326 0013387  93.9928  18.9149 15.47208701349894
XW-2C                   
1 40906U 15049H   21343.82889009  .00001410  00000+0  74067-4 0  9998
2 40906  97.4905 344.0966 0012885 302.9007 178.4056 15.17282212344151
XW-2D                   
1 40907U 15049J   21343.84809122  .00001738  00000+0  89557-4 0  9992
2 40907  97.4892 343.9773 0012279 298.6405 180.7612 15.17677415344192
LILACSAT-2              
1 40908U 15049K   21343.82935152  .00000671  00000+0  39714-4 0  9999
2 40908  97.5109 341.5392 0014564 318.5355 162.5144 15.14755210343779
XW-2E                   
1 40909U 15049L   21343.82425659  .00002580  00000+0  12131-3 0  9990
2 40909  97.4673 348.1835 0011072 280.1681 158.8421 15.20444602344579
XW-2F                   
1 40910U 15049M   21343.82771146  .00002596  00000+0  12381-3 0  9991
2 40910  97.4739 347.2828 0012159 280.3245 203.2813 15.19940361344358
XW-2B                   
1 40911U 15049N   21343.86080042  .00001825  00000+0  94086-4 0  9991
2 40911  97.4883 344.6422 0012156 300.4628 178.6562 15.17587726344082
KAITUO 1B               
1 40912U 15049P   21343.85517454  .00002850  00000+0  12548-3 0  9994
2 40912  97.4427 351.6899 0012312 245.7803 236.4129 15.22601302344875
TIANWANG 1A (TW-1A)     
1 40928U 15051D   21343.82644255  .00008908  00000+0  16678-3 0  9999
2 40928  97.0625   4.6875 0009581  20.6491 153.5846 15.48866584348809
LAPAN-A2                
1 40931U 15052B   21342.79522191  .00000746  00000+0  14666-4 0  9991
2 40931   5.9972  88.9168 0013648 348.8687  11.1517 14.76708862335115
LQSAT                   
1 40958U 15057A   21343.91566809  .00000101  00000+0  22997-4 0  9995
2 40958  97.7795  33.3311 0017317 207.5750 152.4535 14.73224263332086
ATHENOXAT 1             
1 41168U 15077C   21343.86858271  .00003854  00000+0  15485-3 0  9993
2 41168  14.9823  50.4039 0010291  99.8553  53.5587 15.16833729331445
GALASSIA                
1 41170U 15077E   21343.54294876  .00002955  00000+0  11018-3 0  9995
2 41170  14.9900  43.1958 0011844 128.1299 232.0091 15.16915210331317
VELOX-II                
1 41171U 15077F   21343.68536766  .00002214  00000+0  83550-4 0  9997
2 41171  14.9912 106.6562 0008477 346.9533  13.0569 15.13270824330808
CHUBUSAT-2              
1 41338U 16012B   21343.87395351  .00000448  00000+0  27746-4 0  9998
2 41338  31.0014 150.2863 0013475  72.1356 288.0749 15.00719371318979
CHUBUSAT-3              
1 41339U 16012C   21343.81401494  .00000576  00000+0  37529-4 0  9991
2 41339  31.0104 147.7246 0013289  78.8408 281.3720 15.00852669318962
HORYU-4                 
1 41340U 16012D   21343.79311339  .00000781  00000+0  51263-4 0  9997
2 41340  31.0037 129.1626 0013536 114.5269 245.6779 15.02207807319174
